PrimaryProjectType,ID,SubType,ProjectStatus,StartDateActual,FinishDateActual,NumberOfDays,ProjectSiteName,ProjectSiteAddress,Acronym,CO2e_Calculated_MT,Postcode,Borough,Latitude,Longitude,CommunityBoard,CouncilDistrict,CensusTract,BIN,BBL,NTA
Lighting System Upgrade,1,Retrofit,Completed,1-Apr-11,30-Sep-11,182, Engine Co. 211- Lighting Upgrade,26 Hooper Street,FDNY,45.41,11249,BROOKLYN,40.701506,-73.962398,1,33,539,3060298,3022030016,Williamsburg                                                               
Energy Audit,2,None,Completed,8-Feb-11,12-Aug-11,185, I.S.318K Eugenio Maria De Hostos School,101 Walton Street,DOE,345.38,11206,BROOKLYN,40.7025,-73.948869,1,33,509,3061328,3022460001,Williamsburg                                                               
Energy Audit,3,None,Completed,21-Apr-11,3-May-12,378, P.S.112X The Bronxwood School,1925 Schieffelin Avenue,DOE,31.68,10466,BRONX,40.885008,-73.843193,12,12,458,2065991,2049050500,Eastchester-Edenwald-Baychester                                            
Lighting System Upgrade,4,Retrofit,Completed,31-May-11,28-Sep-11,120, Staten Island 2 District Garages,2500 RICHMOND AVENUE     STATEN ISLAND,DSNY,123.92,10314,STATEN IS,40.587291,-74.168234,2,51,228,5041599,5025200001,New Springville-Bloomfield-Travis                                          
Lighting System Upgrade,5,Retrofit,Substantially Completed,26-Jan-11,21-Oct-11,268,100th Precinct,"9224 Rockaway  Beach, or 92-24 Rockaway Beach Boulevard",NYPD,22.13,11694,QUEENS,40.570817,-73.854379,14,32,928,,,Breezy Point-Belle Harbor-Rockaway Park-Broad Channel                      
Lighting System Upgrade,6,Retrofit,Substantially Completed,26-Jan-11,14-Oct-11,261,101st Precinct,"1612 Mott Avenue, or 16-12 Mott Avenue",NYPD,20.56,11691,QUEENS,40.602862,-73.750278,14,31,103202,4298231,4155570004,Far Rockaway-Bayswater                                                     
Lighting System Upgrade,7,Retrofit,Completed,13-Dec-10,30-Jun-11,199,10X032 - 690 East 183rd Street,690 East 183rd Street,DOE,71.93,10458,BRONX,40.852103,-73.885935,6,15,391,2012409,2030850001,Belmont                                                                    
Lighting System Upgrade,8,Retrofit,Completed,20-May-09,28-Jan-10,253,111th Precinct,45-06 215TH STREET,NYPD,26.75,11361,QUEENS,40.760179,-73.767441,11,19,1471,4157390,4073330221,Bayside-Bayside Hills                                                      
Lighting System Upgrade,9,Retrofit,Substantially Completed,26-Jan-11,9-Dec-11,317,114th Precinct,34-16 ASTORIA BOULEVARD,NYPD,57.26,11103,QUEENS,40.769581,-73.915593,1,22,6501,4009361,4006320030,Astoria                                                                    
Other,10,Photovoltaic,Substantially Completed,14-Dec-11,24-Feb-12,72,114th Precinct - Photovoltaic,34-16 Astoria Blvd,NYPD,15.77,11103,QUEENS,40.769581,-73.915593,1,22,6501,4009361,4006320030,Astoria                                                                    
Other,11,Photovoltaic,Substantially Completed,14-Dec-11,24-Feb-12,72,115th Precinct - Photovoltaic,92-15 Northern Blvd,NYPD,22.52,11372,QUEENS,40.756571,-73.875836,3,21,351,4034862,4014220034,Jackson Heights                                                            
Lighting System Upgrade,12,Retrofit,Completed,1-Dec-08,20-Jul-09,231,123rd Precinct,116 Main Street,NYPD,12.63,10307,STATEN IS,40.512,-74.249725,3,51,248,5088926,5080280056,Charleston-Richmond Valley-Tottenville                                     
Lighting System Upgrade,13,Retrofit,Substantially Completed,5-Jan-11,21-Nov-11,320,12X092 - 700 East 179th Street,700 East 179th Street,DOE,64.13,10457,BRONX,40.846711,-73.889815,6,17,371,2012620,2030920014,East Tremont                                                               
Lighting System Upgrade,14,Retrofit,Completed,1-Mar-11,9-Aug-11,161,137 Centre Street,133-37 Centre Street,DCAS,71.03,10013,MANHATTAN,40.717036,-74.000747,1,1,31,1002358,1001970017,SoHo-TriBeCa-Civic Center-Little Italy                                     
Lighting System Upgrade,15,Retrofit,Completed,4-Jan-11,15-Dec-11,345,14K147 - 325 Bushwick Avenue,325 Bushwick Avenue,DOE,93.57,11206,BROOKLYN,40.705204,-73.939407,1,34,485,3071418,3030910001,Bushwick South                                                             
Lighting System Upgrade,16,Retrofit,Completed,19-Jan-11,15-Dec-11,330,14K250 - 108 Montrose Avenue,108 Montrose Avenue,DOE,88.18,11206,BROOKLYN,40.707104,-73.945475,1,34,505,3071199,3030600001,East Williamsburg                                                          
Lighting System Upgrade,17,Retrofit,Completed,11-Mar-11,20-Dec-11,284,23K275 - 985 Rockaway Avenue,985 Rockaway Ave,DOE,153.36,11212,BROOKLYN,40.656068,-73.907245,16,42,922,3082940,3036360007,Brownsville                                                                
Lighting System Upgrade,18,Retrofit,Completed,25-Jun-09,7-Jan-10,196,26th Street Repair Garage,640 West 26th Street,DSNY,366.78,10001,MANHATTAN,40.751183,-74.006594,4,3,99,1012267,1006700050,Hudson Yards-Chelsea-Flatiron-Union Square                                 
Lighting System Upgrade,19,Retrofit,Completed,12-Dec-08,20-Jul-09,220,34th Precinct,4295 BROADWAY,NYPD,40.08,10033,MANHATTAN,40.851205,-73.935215,12,10,271,1064415,1021800108,Washington Heights North                                                   
Lighting System Upgrade,20,Retrofit,Completed,24-Jul-09,13-May-10,293,3A,680  East 132nd Street,DSNY,22.22,10454,BRONX,40.801291,-73.916431,1,17,19,2003581,2025430060,Mott Haven-Port Morris                                                     
Lighting System Upgrade,21,Retrofit,Completed,5-Sep-07,11-Sep-08,372,40th Precinct,257 ALEXANDER AVENUE,NYPD,22.42,10454,BRONX,40.810347,-73.924941,1,8,39,2000700,2023140030,Mott Haven-Port Morris                                                     
Lighting System Upgrade,22,Retrofit,Completed,5-Sep-07,12-Sep-08,373,41st Precinct,1035 LONGWOOD AVENUE,NYPD,71.69,10459,BRONX,40.816198,-73.896,2,17,89,2090437,2027320001,Hunts Point                                                                
Lighting System Upgrade,23,Retrofit,Completed,3-Dec-10,11-Feb-11,70,44 Beaver Street,44 Beaver Street,DSNY,103.74,10004,MANHATTAN,40.705079,-74.010766,1,1,9,1000850,1000290073,Battery Park City-Lower Manhattan                                          
Lighting System Upgrade,24,Retrofit,Completed,5-Sep-07,13-Sep-08,374,44th Precinct,2 EAST 169TH ST,NYPD,42.07,10452,BRONX,40.837837,-73.91963,4,16,22101,2003017,2024890077,West Concourse                                                             
Energy Audit,25,None,Completed,6-Feb-12,15-Jun-12,130,48th Precinct,450 CROSS BRONX EXPWY BRONX NY,NYPD,22.92,10457,BRONX,40.844149,-73.900604,6,15,165,2009509,2029070010,Claremont-Bathgate                                                         
Other,26,Photovoltaic,Substantially Completed,14-Dec-11,7-Mar-12,84,48th Precinct - Photovoltaic,450 Cross Bronx Expressway,NYPD,13.51,10457,BRONX,40.844149,-73.900604,6,15,165,2009509,2029070010,Claremont-Bathgate                                                         
Lighting System Upgrade,27,Retrofit,Completed,5-Sep-07,14-Sep-08,375,49th Precinct,2121 EASTCHESTER ROAD,NYPD,50.65,10461,BRONX,40.856047,-73.843944,11,13,296,2097543,2042050001,Pelham Parkway                                                             
Lighting System Upgrade,28,Retrofit,Completed,20-May-09,28-Jan-10,253,61st Precinct,2575 CONEY ISLAND AVENUE,NYPD,41.65,11223,BROOKLYN,40.594011,-73.960853,15,48,584,3200556,3073710052,Homecrest                                                                  
Lighting System Upgrade,29,Retrofit,Completed,20-May-09,28-Jan-10,253,62nd Precinct,1925 BATH AVENUE,NYPD,22.51,11214,BROOKLYN,40.602329,-74.00318,11,43,282,3167815,3064060045,Bath Beach                                                                 
Lighting System Upgrade,30,Retrofit,Completed,20-May-09,28-Jan-10,253,63rd Precinct,1844 BROOKLYN AVENUE,NYPD,12.31,11210,BROOKLYN,40.628162,-73.941357,18,45,740,3207376,3075990067,Flatlands                                                                  
Lighting System Upgrade,31,Retrofit,Completed,20-May-09,28-Jan-10,253,66th Precinct,5822 16TH AVENUE,NYPD,12.23,11204,BROOKLYN,40.62583,-73.990943,12,44,242,3397270,3055020043,Borough Park                                                               
Lighting System Upgrade,32,Retrofit,Completed,20-May-09,28-Jan-10,253,70th Precinct,154 LAWRENCE AVENUE,NYPD,14.23,11230,BROOKLYN,40.630592,-73.973704,14,44,480,3127902,3054230021,Flatbush                                                                   
Energy Audit,33,None,Completed,9-Jan-12,3-Apr-12,85,73rd Precinct,470 EAST NEW YORK AVENUE,NYPD,66.37,11225,BROOKLYN,40.661783,-73.947073,9,40,806,3106522,3047920008,Prospect Lefferts Gardens-Wingate                                          
HVAC System Upgrade,34,Retrofit,Completed,10-Mar-08,12-Sep-11,1281,79th Pct.,263 Tompkins Ave.,NYPD,287.26,11216,BROOKLYN,40.688993,-73.945025,3,36,263,3050453,3018000003,Bedford                                                                    
Energy Audit,35,None,Completed,6-Feb-12,15-Jun-12,130,81st Precinct,30 Ralph Ave Brooklyn NY,NYPD,42.72,11221,BROOKLYN,40.689456,-73.924024,3,41,387,3044596,3016330039,Stuyvesant Heights                                                         
Lighting System Upgrade,36,Retrofit,Completed,17-Dec-10,11-Apr-11,115,Andrew Heiskell Library,40 West 20th Street,NYPL,26.63,10011,MANHATTAN,40.740246,-73.992324,5,3,54,1076145,1008217501,Hudson Yards-Chelsea-Flatiron-Union Square                                 
Energy Audit,37,None,Completed,23-Dec-11,15-Aug-12,236,Atlantic Avenue Men's Shelter (Armory),1322 Bedford Avenue,DHS,121.72,11216,BROOKLYN,40.678273,-73.952908,8,35,221,3029748,3011990015,Crown Heights North                                                        
Lighting System Upgrade,38,Retrofit,Install,1-Apr-11,31-Dec-11,274,Betts Avenue Boiler Room,58-73 53rd Avenue,DSNY,90.62,11377,QUEENS,40.734136,-73.909403,2,30,243,4462505,4023610268,Elmhurst-Maspeth                                                           
Lighting System Upgrade,39,Retrofit,Substantially Completed,26-Jun-09,12-May-10,320,"Bklyn 8, Bklyn 7/10 District Garages",5100 1st Ave,DSNY,108.41,11232,BROOKLYN,40.649977,-74.02012,7,38,18,3000000,3007250200,Sunset Park West                                                           
Lighting System Upgrade,40,Retrofit,Completed,26-Jun-09,12-May-10,320,"Bklyn 8, Bklyn 7/10 District Garages","1760 Atlantic Ave, 1755 Pacific Street",DSNY,44.39,11213,BROOKLYN,40.677494,-73.931969,8,36,309,3330693,3013360018,Crown Heights North                                                        
Lighting System Upgrade,41,Retrofit,Substantially Completed,29-Aug-11,27-Aug-12,364,BMS/QMS Building,59-06 LAUREL HILL BLVD,NYPD,112.24,11377,QUEENS,40.736834,-73.906426,2,30,243,4054168,4023440030,Elmhurst-Maspeth                                                           
Energy Audit,42,None,In Progress,15-Feb-12,15-May-12,90,Borden Avenue Shelter,21-10 Borden Avenue,DHS,84.54,11101,QUEENS,40.740367,-73.949566,2,26,1,4000526,4000680002,Hunters Point-Sunnyside-West Maspeth                                       
Energy Audit,43,None,Completed,6-Feb-12,21-Jun-12,136,Bronx 12 District Garage,1635 East 233rd St. Bronx NY,DSNY,60.8,10466,BRONX,40.888188,-73.826903,12,12,456,2090261,2049740028,Eastchester-Edenwald-Baychester                                            
Lighting System Upgrade,44,Retrofit,Completed,24-Jul-09,13-May-10,293,Bronx 12 District Garage,1635 East 233rd St. Bronx NY,DSNY,151.64,10466,BRONX,40.888188,-73.826903,12,12,456,2090261,2049740028,Eastchester-Edenwald-Baychester                                            
Energy Audit,45,None,Completed,14-Feb-11,30-Jun-11,136,Bronx Bergen Building,1932 Arthur Avenue Bronx NY,DCAS,153.01,10457,BRONX,40.845685,-73.893294,6,17,36901,2009911,2029470018,East Tremont                                                               
Energy Audit,46,None,Completed,14-Feb-11,28-Jun-11,134,Bronx Concourse Plaza,198 East 161st Street,DCAS,314.72,10451,BRONX,40.826354,-73.921024,4,16,61,2099027,2024430094,East Concourse-Concourse Village                                           
Lighting System Upgrade,47,Retrofit,Completed,17-Sep-08,2-Jun-09,258,Bronx East 6 Garage,"807 EAST 175TH STREET, 800 East 176th Street",DSNY,119.18,10460,BRONX,40.841043,-73.890374,6,17,367,2097276,2029530021,East Tremont                                                               
Lighting System Upgrade,48,Retrofit,Substantially Completed,1-Nov-11,27-Mar-12,147,Brooklyn Botanic Garden,1000 Washington Avenue,DCLA,30.67,11225,BROOKLYN,40.666949,-73.961679,55,35,177,3337842,3011830001,park-cemetery-etc-Brooklyn                                                 
Energy Audit,49,None,Completed,16-Mar-10,23-Aug-10,160,Brooklyn Heights Branch Library,286 Fulton Street,BPL,135.53,11201,BROOKLYN,40.69552,-73.990963,2,33,502,3001939,3002390016,Brooklyn Heights-Cobble Hill                                               
Energy Audit,50,None,Completed,18-Mar-10,1-Sep-10,167,Brooklyn High School of the Arts,345 Dean Street,DOE,23.32,11217,BROOKLYN,40.683559,-73.98027,2,33,39,3001190,3001920013,DUMBO-Vinegar Hill-Downtown Brooklyn-Boerum Hill                           
Energy Audit,51,None,Completed,21-Jan-11,11-May-11,110,Brooklyn North Narcotics Division,245 Glenmore Ave,NYPD,113.17,11207,BROOKLYN,40.672361,-73.901617,5,37,1144,3083636,3036980032,East New York (Pennsylvania Ave)                                           
Other,52,Photovoltaic,Substantially Completed,31-Oct-11,22-Feb-12,114,Brooklyn South 14 - Photovoltaic,1397 Ralph Avenue,DSNY,22.52,11236,BROOKLYN,40.642674,-73.919717,18,45,960,3221978,3079180145,Canarsie                                                                   
Lighting System Upgrade,53,Retrofit,Completed,5-Mar-09,18-Mar-10,378,Bureau Of Supplies,44-46 VERNON BOULEVARD,DOE,445.19,11101,QUEENS,40.749272,-73.95223,2,26,1,4005429,4004890001,Hunters Point-Sunnyside-West Maspeth                                       
Energy Audit,54,None,Completed,4-Nov-10,3-Jun-11,211,Bushwick Multi Service Center,1420 Bushwick Ave,HRA,23.19,11207,BROOKLYN,40.684318,-73.909056,4,37,403,3080067,3034440022,Bushwick South                                                             
Lighting System Upgrade,55,Retrofit,Completed,24-Jul-09,13-May-10,293,Bx 5 District Garage,1331 Cromwell Ave,DSNY,23.85,10452,BRONX,40.839273,-73.920629,4,16,219,2008640,2028710077,Highbridge                                                                 
Lighting System Upgrade,56,Retrofit,Completed,24-Jul-09,13-May-10,293,Bx 7/8,423 West 215th St.,DSNY,82.55,10034,MANHATTAN,40.869024,-73.913916,12,10,299,1082036,1022120001,Marble Hill-Inwood                                                         
HVAC System Upgrade,57,Retrofit,Completed,15-Nov-10,26-Apr-11,162,Cioffe Borough Shop - 106-01 Avenue D,106-01 Avenue D,DSNY,148.09,11236,BROOKLYN,40.654363,-73.900725,18,42,1098,3252759,3038710001,East New York                                                              
Lighting System Upgrade,58,Retrofit,Completed,30-Apr-10,30-Jun-10,61,Crossroads Juvenile Center,17 Bristol Street,ACS,86.05,11212,BROOKLYN,40.670746,-73.912932,16,41,924,3378202,3034980008,Brownsville                                                                
Energy Audit,59,None,Completed,17-Feb-11,22-Nov-11,278,DOE Offices,65 Court Street,DOE,81.66,11201,BROOKLYN,40.692012,-73.991227,2,33,9,3002557,3002660020,Brooklyn Heights-Cobble Hill                                               
Lighting System Upgrade,60,Retrofit,Completed,31-Dec-10,1-Jul-11,182,Doe17 11X041 - 3352 Olinville Avenue,3352 Olinville Ave,DOE,59.12,10467,BRONX,40.874313,-73.868157,12,12,374,2056898,2046240015,Williamsbridge-Olinville                                                   
Lighting System Upgrade,61,Retrofit,Substantially Completed,26-Mar-12,21-Jun-12,87,East Harlem Health Care Center,158 East 115th Street,DOHMH,51.79,10029,MANHATTAN,40.797755,-73.941699,11,8,182,1052229,1016400147,East Harlem North                                                          
Lighting System Upgrade,62,Retrofit,Completed,8-Sep-11,5-Dec-11,88,Energy Efficient lighting at FDNY-Engine Company 71,"720 Melrose Ave Bronx, NY",FDNY,30.63,10455,BRONX,40.820422,-73.915778,1,17,69,2001400,2023770001,Melrose South-Mott Haven North                                             
Other,63,Photovoltaic,Substantially Completed,16-Dec-11,23-Mar-12,98,Engine Company 168 / Emergency Maintenance Station 22,1100 Rossville Ave,FDNY,18.02,10309,STATEN IS,40.553977,-74.212812,3,51,20801,5154879,5070670252,Rossville-Woodrow                                                          
Lighting System Upgrade,64,Retrofit,Completed,27-Mar-09,30-Jul-09,125,Engine Company 206,1201 GRAND ST,FDNY,25.27,11211,BROOKLYN,40.715147,-73.927956,1,34,449,3070506,3029290053,East Williamsburg                                                          
Lighting System Upgrade,65,Retrofit,Completed,27-Mar-09,15-Sep-09,172,Engine Company 207,"301 Gold Street, 172 Tillary Street",FDNY,33.08,11201,BROOKLYN,40.695447,-73.983228,2,35,15,3000252,3001340006,DUMBO-Vinegar Hill-Downtown Brooklyn-Boerum Hill                           
Lighting System Upgrade,66,Retrofit,Completed,29-Aug-11,30-Sep-11,32,Engine Company 222,32 Ralph Avenue,FDNY,13.74,11221,BROOKLYN,40.689385,-73.924006,3,41,387,3044596,3016330039,Stuyvesant Heights                                                         
Lighting System Upgrade,67,Retrofit,Completed,27-Mar-09,24-Jun-09,89,Engine Company 42 & Ladder 56,1781 Monroe Avenue,FDNY,11.52,10457,BRONX,40.846283,-73.906532,5,15,22901,2007448,2027970035,Mount Hope                                                                 
Lighting System Upgrade,68,Retrofit,Completed,27-Mar-09,10-Jul-09,105,Engine Company 45 & Ladder 58,925 E TREMONT AVE,FDNY,27.45,10460,BRONX,40.84172,-73.883628,6,17,363,2013192,2031260012,East Tremont                                                               
Energy Audit,69,None,Completed,16-Aug-11,19-Jan-12,156,Excelsior Building,133-137 Centre Street,DCAS,69.66,10013,MANHATTAN,40.717036,-74.000747,1,1,31,1002358,1001970017,SoHo-TriBeCa-Civic Center-Little Italy                                     
Energy Audit,70,None,Completed,20-Apr-11,4-Apr-12,350,Fashion Industries High School,225 West 24th St,DOE,29.57,10011,MANHATTAN,40.745156,-73.996074,4,3,91,1014174,1007740019,Hudson Yards-Chelsea-Flatiron-Union Square                                 
Lighting System Upgrade,71,Retrofit,Completed,10-Jan-11,31-Aug-11,233,Ferry Maintenance Facility,1 Bay Street,DOT,136.37,10301,STATEN IS,40.643574,-74.072627,1,49,3,5141706,5000020001,West New Brighton-New Brighton-St. George                                  
Lighting System Upgrade,72,Retrofit,Completed,6-May-10,21-Oct-10,168,Fleet Services R&T Building - 48-34 35th Street,48-34 35th Street,FDNY,253.34,11101,QUEENS,40.740165,-73.930693,2,26,199,4003451,4002540001,Hunters Point-Sunnyside-West Maspeth                                       
Energy Audit,73,None,Completed,6-Jun-12,2-Jul-12,26,Fort Totten,Fort Totten Bayside NY,FDNY,397.97,11359,QUEENS,40.791326,-73.776653,7,19,999,4000000,4059170001,Ft. Totten-Bay Terrace-Clearview                                           
Energy Audit,74,None,Completed,26-Sep-11,6-Feb-12,133,Fort Washington Armory Shelter,216 Fort Washington Avenue New York NY,DHS,342.94,10032,MANHATTAN,40.842571,-73.942097,12,10,251,1063381,1021380079,Washington Heights South                                                   
Energy Audit,75,None,Completed,20-Jan-11,10-May-11,110,Fresh Kills Landfill - SI 3 DG; RBS,600 West Service Rd,DSNY,264.6,10314,STATEN IS,40.583094,-74.192896,2,50,228,5156879,5026850100,New Springville-Bloomfield-Travis                                          
Lighting System Upgrade,76,Retrofit,Completed,30-Jun-10,24-Nov-10,147,Group 5 - 71st/76th/90th/94th/77 Annex Pcts,191 UNION STREET,NYPD,41.78,11231,BROOKLYN,40.683643,-74.000303,6,39,63,3004301,3003370027,Carroll Gardens-Columbia Street-Red Hook                                   
Lighting System Upgrade,77,Retrofit,Completed,30-Jun-10,24-Nov-10,147,Group 5 - 71st/76th/90th/94th/77 Annex Pcts,653 GRAND AVENUE,NYPD,25.83,11238,BROOKLYN,40.675658,-73.963123,8,35,305,3028914,3011620001,Crown Heights North                                                        
Lighting System Upgrade,78,Retrofit,Completed,12-Feb-10,24-Nov-10,285,Group 5 - 71st/76th/90th/94th/77 Annex Pcts,421 EMPIRE BOULEVARD,NYPD,64.13,11225,BROOKLYN,40.664113,-73.947763,9,35,331,3034563,3013100001,Crown Heights South                                                        
Lighting System Upgrade,79,Retrofit,Completed,12-Feb-10,24-Nov-10,285,Group 5 - 71st/76th/90th/94th/77 Annex Pcts,211 UNION AVE,NYPD,91.94,11211,BROOKLYN,40.70654,-73.950399,1,34,527,3063633,3024650100,North Side-South Side                                                      
Lighting System Upgrade,80,Retrofit,Completed,30-Jun-10,24-Nov-10,147,Group 5 - 71st/76th/90th/94th/77 Annex Pcts,100 MESEROLE AVENUE,NYPD,57.6,11222,BROOKLYN,40.726993,-73.952982,1,33,561,3065579,3026190003,Greenpoint                                                                 
Lighting System Upgrade,81,Retrofit,Completed,5-Sep-08,7-May-09,244,H.S. For Environmental Science,"448 WEST 56TH ST, 444 West 56th Street",DOE,53.4,10019,MANHATTAN,40.767824,-73.98761,4,3,139,1026841,1010650001,Clinton                                                                    
Lighting System Upgrade,82,Retrofit,Completed,27-Jun-08,5-May-09,312,H.S. Of Graphic Communication Arts,439 WEST 49TH ST,DOE,235.57,10019,MANHATTAN,40.76337,-73.990593,4,3,127,1026646,1010590015,Clinton                                                                    
HVAC System Upgrade,83,Retrofit,Completed,30-Apr-10,30-Jun-10,61,Horizon Juvenile Center - 560 Brook Avenue,55 St. Anns Ave (560 Brook),ACS,105.27,10454,BRONX,40.802554,-73.920557,1,8,19,,,Mott Haven-Port Morris                                                     
Lighting System Upgrade,84,Retrofit,Completed,3-Jan-11,27-Apr-11,114,Human Resources Administration - 109 East 16th Street,109 East 16th Street,HRA,126.43,10003,MANHATTAN,40.735681,-73.988713,5,2,50,1017821,1008720013,Gramercy                                                                   
Lighting System Upgrade,85,Retrofit,Completed,12-Jul-10,10-Sep-10,60,Human Resources Administration - 30 Thornton Street,"731 Flushing Avenue, 30 Thornton Street",HRA,67.82,11206,BROOKLYN,40.700565,-73.943321,1,33,507,3061504,3022760012,Bedford                                                                    
Lighting System Upgrade,86,Retrofit,Completed,23-Apr-08,27-Feb-09,310,I.S. 207Q (Rockw Pk)/P.S. 232Q (Lindenw)/P.S. 63Q(Old South),90-15 Sutter Ave,DOE,68.8,11417,QUEENS,40.67641,-73.846773,10,32,54,4190727,4091550025,Ozone Park                                                                 
Lighting System Upgrade,87,Retrofit,Completed,23-Apr-08,27-Feb-09,310,I.S. 207Q (Rockw Pk)/P.S. 232Q (Lindenw)/P.S. 63Q(Old South),153-23 83rd Street,DOE,43.31,11414,QUEENS,40.665909,-73.851216,10,32,6202,4247454,4114450001,Lindenwood-Howard Beach                                                    
Lighting System Upgrade,88,Retrofit,Completed,23-Apr-08,27-Feb-09,310,I.S. 207Q (Rockw Pk)/P.S. 232Q (Lindenw)/P.S. 63Q(Old South),159-15 88th Street,DOE,48.9,11414,QUEENS,40.658089,-73.844432,10,32,892,4293311,4140090060,Lindenwood-Howard Beach                                                    
Lighting System Upgrade,89,Retrofit,Completed,23-Jun-09,2-Feb-10,224,I.S. 49R,101 Warren St.,DOE,116.28,10007,MANHATTAN,40.715729,-74.011424,1,1,21,1087170,1001427501,SoHo-TriBeCa-Civic Center-Little Italy                                     
Energy Audit,90,None,Completed,16-Feb-11,12-Apr-12,421,I.S.131X Albert Einstein,885 Bolton Avenue,DOE,95.1,10473,BRONX,40.823526,-73.859662,9,18,42,2103869,2036440001,Soundview-Castle Hill-Clason Point-Harding Park                            
Energy Audit,91,None,Completed,17-Feb-11,21-May-12,459,I.S.238Q Susan B Anthony School,88-15 182nd Street,DOE,170.25,11423,QUEENS,40.713094,-73.780468,12,27,470,4212425,4099190006,Jamaica                                                                    
Energy Audit,92,None,Completed,24-Feb-11,17-Apr-12,418,J.H.S.125X Henry Hudson Middle School,1111 Pugsley Avenue,DCAS,102.28,10472,BRONX,40.829232,-73.856734,9,18,4001,2025717,2037900040,Soundview-Bruckner                                                         
Energy Audit,93,None,Completed,3-Mar-11,3-Apr-12,397,J.H.S.142X John Philip Sousa Middle School,3750 Baychester Avenue,DOE,254.33,10466,BRONX,40.884953,-73.840524,12,12,484,2066190,2049350001,Eastchester-Edenwald-Baychester                                            
Lighting System Upgrade,94,Retrofit,Substantially Completed,11-Oct-11,19-Mar-12,160,Jackie Robinson Recreation Center,89 Bradhurst Avenue,DPR,27.43,10039,MANHATTAN,40.824253,-73.942189,10,9,231,1084164,1020520001,Hamilton Heights                                                           
Lighting System Upgrade,95,Retrofit,Substantially Completed,1-Jul-11,14-Dec-11,166,K009 - P.S. 9K Teunis G. Bergen School Lighting,80 Underhill Ave,DOE,68.25,11238,BROOKLYN,40.678297,-73.965541,8,35,205,3028204,3011450026,Prospect Heights                                                           
Energy Audit,96,None,Completed,12-Oct-10,5-May-11,205,K009 - PS 9K Teunis G. Bergen School,80 Underhill Ave,DOE,86.38,11238,BROOKLYN,40.678297,-73.965541,8,35,205,3028204,3011450026,Prospect Heights                                                           
Energy Audit,97,None,Completed,28-Oct-10,2-Jun-11,217,K013 PS 13K Roberto Clemente School,557 Pennsylvania Ave,DOE,437.31,11207,BROOKLYN,40.663673,-73.893754,5,42,1126,3085070,3038230001,East New York (Pennsylvania Ave)                                           
Energy Audit,98,None,Completed,28-Oct-10,20-May-11,204,K067 - PS 67K Charles A. Dorsey School,51 Saint Edwards St,DOE,128.03,11205,BROOKLYN,40.695633,-73.978215,2,35,2901,3332507,3020390002,Fort Greene                                                                
Energy Audit,99,None,Completed,13-Oct-10,27-May-11,226,K135 - PS 135 Sheldon A. Brookner,686 Linden Blvd,DOE,7.4,11203,BROOKLYN,40.653643,-73.933053,17,41,870,3102005,3046730001,East Flatbush-Farragut                                                     
Energy Audit,100,None,Completed,7-Apr-11,14-Feb-12,313,K220 JHS 220K John J. Pershing,4812 9th Ave,DOE,48.9,11220,BROOKLYN,40.640545,-74.000731,12,38,108,3012824,3007780023,Sunset Park East                                                           
Energy Audit,101,None,Completed,12-Apr-11,7-May-12,391,K383 JHS 383 Philippa Schuyler,1300 Greene Av,DOE,156.59,11237,BROOKLYN,40.697781,-73.919777,4,37,431,3075413,3032980001,Bushwick North                                                             
Lighting System Upgrade,102,Retrofit,Completed,11-Mar-11,31-Dec-11,295,Ko62 - 700 Cortelyou Road,700 Cortelyou Road,DOE,128.8,11218,BROOKLYN,40.638686,-73.971651,12,40,490,3126842,3053910001,Kensington-Ocean Parkway                                                   
Lighting System Upgrade,103,Retrofit,Completed,9-Apr-12,28-Sep-12,172,Leonard Branch Library,81 Devoe Street,BPL,15.1,11211,BROOKLYN,40.713456,-73.947916,1,34,503,3068818,3027620021,East Williamsburg                                                          
Lighting System Upgrade,104,Retrofit,Completed,20-Jan-11,21-Jul-11,182,Leonard Covello Senior Center,312 E. 109th Street,DFTA,23.32,10029,MANHATTAN,40.792306,-73.94048,11,8,170,1074278,1016800045,East Harlem South                                                          
Energy Audit,105,None,Completed,19-Apr-11,14-May-12,391,M022 New Explorations into Science Technology and Math High School,111 Columbia St,DOE,112.19,10002,MANHATTAN,40.718895,-73.979308,3,2,2201,1004070,1003350001,Lower East Side                                                            
Energy Audit,106,None,Completed,19-Apr-11,3-May-12,380,M025 Marta Valle Secondary School,145 Stanton St,DOE,97.5,10002,MANHATTAN,40.720581,-73.985645,3,1,3001,1004323,1003540080,Chinatown                                                                  
Energy Audit,107,None,Completed,14-Apr-11,8-May-12,390,M099 Academy of Environmental Science Secondary Shool,410 East 100th Street,DOE,79.16,10029,MANHATTAN,40.785671,-73.942548,11,8,162,1052998,1016930001,East Harlem South                                                          
Energy Audit,108,None,Completed,26-Oct-10,14-Jul-11,261,M199 - PS 199M Jessie Isador Straus,270 West 70 Street,DOE,62.16,10023,MANHATTAN,40.778059,-73.984449,7,6,155,1030351,1011580040,Lincoln Square                                                             
Energy Audit,109,None,Completed,14-Oct-10,16-Mar-12,519,M217 - PS 217M,645 Main Street,DOE,627.8,10044,MANHATTAN,40.763894,-73.947916,8,5,23802,1084848,1013730001,Lenox Hill-Roosevelt Island                                                
Energy Audit,110,None,Completed,14-Oct-10,27-May-11,225,M721 - PS 721 Manhattan Occupational Training Center,250 West Houston St,DOE,114.97,10014,MANHATTAN,40.728677,-74.005993,2,3,67,1009757,1005810054,West Village                                                               
HVAC System Upgrade,111,Retrofit,Completed,11-May-10,10-Jun-10,30,Manhattan Borough Repair Shop,640 West 26th St,DSNY,147.02,10001,MANHATTAN,40.751183,-74.006594,4,3,99,1012267,1006700050,Hudson Yards-Chelsea-Flatiron-Union Square                                 
HVAC System Upgrade,112,Retrofit,Substantially Completed,12-Mar-12,30-Jun-12,110,Manhattan Borough Repair Shop,640 West 26th St.,DSNY,714.85,10001,MANHATTAN,40.751183,-74.006594,4,3,99,1012267,1006700050,Hudson Yards-Chelsea-Flatiron-Union Square                                 
Lighting System Upgrade,113,Retrofit,Completed,3-Aug-09,4-Feb-10,185,Manhattan Health Building - 125 Worth St.,125 Worth Street,DCAS,150.25,10013,MANHATTAN,40.715428,-74.002673,1,1,31,1001831,1001680032,SoHo-TriBeCa-Civic Center-Little Italy                                     
HVAC System Upgrade,114,,Completed,1-Apr-09,1-Jun-09,61,Manhattan Municipal Building,1 Centre Street,DCAS,583.63,10007,MANHATTAN,40.713001,-74.004181,1,1,29,1001394,1001210001,Chinatown                                                                  
Energy Audit,115,None,Completed,1-Jun-11,6-Dec-11,188,Manhattan Supreme Court,60 Centre Street New York NY,DCAS,617.9,10007,MANHATTAN,40.714467,-74.002503,1,1,29,1085748,1001600021,Chinatown                                                                  
Energy Audit,116,None,Completed,4-Feb-11,5-Jul-11,151,Mark A. Constantino Judicial Center,"130 Stuyvesant Pl, Staten Island",DCAS,627.89,10301,STATEN IS,40.642891,-74.076874,1,49,3,5000085,5000080070,West New Brighton-New Brighton-St. George                                  
Lighting System Upgrade,117,Retrofit,Completed,1-Apr-11,30-Apr-11,29,Metropolitan Museum,1000 Fifth Avenue Manhattan,DCLA,291.41,10028,MANHATTAN,40.778633,-73.962546,64,6,143,1083810,1011110001,park-cemetery-etc-Manhattan                                                
Lighting System Upgrade,118,Retrofit,Completed,20-Mar-08,16-Oct-08,210,Midtown North - Manhattan Zone,524 WEST 42ND ST,NYPD,48.84,10036,MANHATTAN,40.76017,-73.99678,4,3,117,1026909,1010700044,Hudson Yards-Chelsea-Flatiron-Union Square                                 
Lighting System Upgrade,119,Retrofit,Completed,13-May-08,17-Oct-08,157,Morrisania Diagnostic & Treatment Ctr,1223 GERARD AVENUE MORRISANIA N F C CNTR,HHC,152.33,10452,BRONX,40.835927,-73.920004,4,16,197,,,West Concourse                                                             
HVAC System Upgrade,120,Retrofit,Install,1-May-09,30-Nov-11,943,Museum Of The City Of New York,1220 Fifth Avenue,DCLA,111.96,10029,MANHATTAN,40.792438,-73.952448,11,8,168,1074157,1016090001,East Harlem South                                                          
HVAC System Upgrade,121,Retrofit,Completed,7-Nov-09,10-Mar-11,488,Museum Of The Moving Image,36-01 35th Ave,DCLA,143.86,11106,QUEENS,40.756206,-73.924377,1,26,57,4439074,4006440001,Astoria                                                                    
HVAC System Upgrade,122,Retrofit,Completed,28-Apr-09,26-Jun-09,59,NYBG - Haupt Conservatory,2740 Dr. Theodore Kazimiroff Blvd,DCLA,8.7,10458,BRONX,40.864493,-73.883936,6,15,334,2113012,2032720001,park-cemetery-etc-Bronx                                                    
HVAC System Upgrade,123,Retrofit,Completed,28-Apr-09,29-Jun-09,62,NYBG - Operations Building,"2800 Southern Blvd Visitor's Center, 2667 Dr. Theodore Kazimiroff Blvd",DCLA,7.89,10458,BRONX,40.865064,-73.883913,6,15,397,,,Belmont                                                                    
HVAC System Upgrade,124,Retrofit,Completed,10-Mar-08,31-Dec-08,296,NYPD - 33rd Precinct,"2207 Amsterdam Ave., NY, NY",NYPD,1.26,10032,MANHATTAN,40.840712,-73.93564,12,10,249,1086200,1021120010,Washington Heights South                                                   
Energy Audit,125,None,Completed,4-Jan-12,14-May-12,131,NYPD 72nd Precinct,830 4th Avenue Brooklyn NY 11232,NYPD,23.76,11232,BROOKLYN,40.65815,-74.00044,7,38,101,3009843,3006680029,Sunset Park West                                                           
Lighting System Upgrade,126,Retrofit,Completed,5-Sep-07,15-Sep-08,376,Old 44th Precinct (Bronx Task Force),1278 SEDGWICK AVENUE,NYPD,13.48,10452,BRONX,40.840261,-73.928514,4,16,201,2003522,2025300021,Highbridge                                                                 
Lighting System Upgrade,127,Retrofit,Completed,11-May-09,30-Jun-09,50,P.S. 109X (Sedgwick),1771 Popham Avenue,DOE,30.81,10453,BRONX,40.851414,-73.918533,5,14,20502,2094549,2028770393,University Heights-Morris Heights                                          
Energy Audit,128,None,Completed,6-Apr-11,7-May-12,397,P.S. 181 Brooklyn,1023 New York Avenue,DOE,133.2,11203,BROOKLYN,40.648215,-73.946374,17,45,856,3327776,3049040010,East Flatbush-Farragut                                                     
Lighting System Upgrade,129,Retrofit,Completed,13-May-08,7-Oct-08,147,P.S. 205A/P.S. 205B (Fiorello Laguard)/P.S. 109X,2375 Southern Boulevard,DOE,21.3,10460,BRONX,40.852801,-73.881834,6,15,393,2013047,2031140052,Belmont                                                                    
Lighting System Upgrade,130,Retrofit,Completed,13-May-08,7-Oct-08,147,P.S. 205A/P.S. 205B (Fiorello Laguard)/P.S. 109X,2475 Southern Boulevard,DOE,64.17,10458,BRONX,40.855263,-73.881139,6,15,393,2086808,2031150021,Belmont                                                                    
Lighting System Upgrade,131,Retrofit,Completed,29-Dec-09,8-Jul-10,191,P.S. 214Q,31-15 140th St.,DOE,53.86,11354,QUEENS,40.770387,-73.828617,7,20,88901,4100846,4044130020,Flushing                                                                   
Lighting System Upgrade,132,Retrofit,Completed,13-May-08,25-Mar-09,316,P.S. 226X Annex,"1900 SEDGWICK AVE, 1950 Sedgwick Avenue",DOE,50.16,10453,BRONX,40.855782,-73.916398,5,14,249,2096465,2032220100,University Heights-Morris Heights                                          
Lighting System Upgrade,133,Retrofit,Completed,6-Jun-08,10-Jun-09,369,P.S. 246X (Poe Ctr)/P.S. 310X/Ms 118X,2641 Grand Concourse,DOE,66.7,10468,BRONX,40.865593,-73.894758,7,14,401,2013830,2031680027,Bedford Park-Fordham North                                                 
Lighting System Upgrade,134,Retrofit,Completed,6-Jun-08,10-Aug-09,430,P.S. 246X (Poe Ctr)/P.S. 310X/Ms 118X,260 West Kingsbridge Road,DOE,54.8,10463,BRONX,40.872895,-73.905244,7,14,269,2096486,2032390041,Kingsbridge Heights                                                        
Lighting System Upgrade,135,Retrofit,Completed,29-Dec-09,22-Jun-10,175,P.S. 24Q,141-11 Holly Avenue,DOE,54.99,11355,QUEENS,40.75146,-73.817849,7,20,1205,4117403,4052010021,East Flushing                                                              
Lighting System Upgrade,136,Retrofit,Completed,13-May-08,25-Mar-09,316,P.S. 396X / M.S. 390X,1930 ANDREWS AVE,DOE,148.75,10453,BRONX,40.854701,-73.913197,5,14,24502,2014692,2032160002,University Heights-Morris Heights                                          
Lighting System Upgrade,137,Retrofit,Completed,5-Sep-08,15-May-09,252,P.S. 58M (The Man. Schl)/FK Onassis (Sch For Intl Careers),317 W. 52nd St.,DOE,63.66,10019,MANHATTAN,40.763866,-73.985939,4,3,133,1025241,1010430022,Clinton                                                                    
Energy Audit,138,None,Completed,3-Mar-11,13-Apr-12,407,P.S.111X Seton Falls School,3740 Baychester Avenue,DOE,269.1,10466,BRONX,40.884343,-73.840254,12,12,484,2065992,2049160001,Eastchester-Edenwald-Baychester                                            
Energy Audit,139,None,Completed,9-Feb-11,23-May-12,469,P.S.131K,4305 Fort Hamilton Parkway,DOE,64.16,11219,BROOKLYN,40.641157,-73.993482,12,39,224,3136085,3056030001,Borough Park                                                               
Energy Audit,140,None,Completed,15-Feb-11,4-Apr-12,414,P.S.219Q Paul Klapper,144-39 Gravett Road,DOE,204.58,11367,QUEENS,40.735275,-73.823778,8,24,809,4448708,4065070001,Kew Gardens Hills                                                          
Energy Audit,141,None,Completed,2-Mar-11,15-May-12,440,P.S.21Q Edward Hart School,147-36 26th Avenue,DOE,29.34,11354,QUEENS,40.774512,-73.819284,7,19,1047,4108665,4048030001,Murray Hill                                                                
Energy Audit,142,None,Completed,3-Feb-11,23-Nov-11,293,P.S.307K Daniel Hale Williams School,209 York Street,DOE,55.7,11201,BROOKLYN,40.701343,-73.982314,2,33,21,3000158,3000560007,DUMBO-Vinegar Hill-Downtown Brooklyn-Boerum Hill                           
Energy Audit,143,None,Completed,16-Feb-11,17-Apr-12,426,P.S.39X,965 Longwood Avenue,DOE,76.78,10459,BRONX,40.817512,-73.898212,2,17,87,2005616,2027100001,Longwood                                                                   
Lighting System Upgrade,144,Retrofit,Completed,5-Sep-08,13-Jan-10,495,Park West High School,525 WEST 50TH STREET,DOE,89.09,10019,MANHATTAN,40.765184,-73.992953,4,3,135,1083802,1010790029,Clinton                                                                    
Energy Audit,145,None,Completed,16-Mar-10,16-Dec-10,275,Park West High School,525 WEST 50TH STREET,DOE,106.04,10019,MANHATTAN,40.765184,-73.992953,4,3,135,1083802,1010790029,Clinton                                                                    
Lighting System Upgrade,146,Retrofit,Completed,1-Apr-11,31-Dec-11,274,Pelham Bay Branch Library,3060 Middletown Road,NYPL,23.59,10461,BRONX,40.844486,-73.828318,10,13,264,2074963,2054040002,Schuylerville-Throgs Neck-Edgewater Park                                   
Lighting System Upgrade,147,Retrofit,Completed,12-Dec-08,20-Jul-09,220,Pier 36 Precinct,PIER 36 & SOUTH STREET,NYPD,15.9,10002,MANHATTAN,40.709677,-73.986178,3,1,201,1000000,1002410013,Lower East Side                                                            
Lighting System Upgrade,148,Retrofit,Completed,4-Dec-09,11-Jun-10,189,Police Forensic Lab - Lighting,150-18 JAMAICA AVENUE,NYPD,125.53,11432,QUEENS,40.702202,-73.804163,12,27,240,4215603,4100920006,Jamaica                                                                    
Energy Audit,149,None,Completed,27-Apr-11,8-May-12,377,PS 044R Thomas C. Brown,80 Maple Parkway,DOE,68.44,10303,STATEN IS,40.63179,-74.156439,1,49,231,5027641,5012180001,Mariner's Harbor-Arlington-Port Ivory-Graniteville                         
Energy Audit,150,None,Completed,21-Apr-11,14-May-12,389,PS 057 Crescent,2111 Crotona Avenue,DOE,44.22,10457,BRONX,40.848472,-73.888561,6,15,373,2012359,2030810026,East Tremont                                                               
Energy Audit,151,None,Completed,14-Apr-11,8-May-12,390,PS 084M Lillian Weber,32 West 92nd St,DOE,66.56,10025,MANHATTAN,40.789526,-73.967574,7,6,177,1081042,1012050006,Upper West Side                                                            
Energy Audit,152,None,Completed,6-Apr-11,17-May-12,407,"PS 10K Magnet School of Math, Science and Design Technology",511 Seventh Ave,DOE,53.91,11215,BROOKLYN,40.661061,-73.986534,7,38,149,3016509,3008690001,Park Slope-Gowanus                                                         
Energy Audit,153,None,Completed,20-Apr-11,17-May-12,393,PS 199X The Shakespeare School,1449 Shakespeare Avenue,DOE,84.79,10452,BRONX,40.842943,-73.920563,4,16,21302,2088263,2028730027,Highbridge                                                                 
Energy Audit,154,None,Completed,3-Feb-11,10-Nov-11,280,PS 68X The Bronx School,4011 Monticello Avenue,DOE,101.91,10466,BRONX,40.891732,-73.838471,12,12,426,2067852,2049860081,Woodlawn-Wakefield                                                         
Energy Audit,155,None,Completed,9-Feb-11,11-May-12,457,PS 75M Emily Dickinson School,735 West End Ave,DOE,51.89,10025,MANHATTAN,40.795157,-73.973292,7,6,183,1034190,1012530065,Upper West Side                                                            
Energy Audit,156,None,Completed,2-Mar-11,28-Feb-12,363,PS 78X Anne Hutchinso,1400 Needham Ave,DOE,65.27,10469,BRONX,40.878577,-73.851163,12,12,386,2060191,2047190001,Eastchester-Edenwald-Baychester                                            
Energy Audit,157,None,Completed,7-Apr-11,9-Feb-12,308,PS 81K Thaddeus Stevens School,990 Dekalb Avenue,DOE,79.84,11221,BROOKLYN,40.693161,-73.935765,3,36,289,3043248,3016020019,Stuyvesant Heights                                                         
Lighting System Upgrade,158,Retrofit,Completed,15-Jun-09,12-May-10,331,"Q 11/13A, Q 7,Q 13",75-05 WINCHESTER BLVD  DIST 11/13 GARAGE,DSNY,501.4,11427,QUEENS,40.742029,-73.7333,13,23,1567,,,Bellerose                                                                  
Energy Audit,159,None,Completed,26-Oct-10,9-Jun-11,226,Q092 - PS 92Q,99-01 34 Avenue,DOE,36.28,11368,QUEENS,40.755418,-73.869017,3,21,377,4042496,4017140018,North Corona                                                               
Energy Audit,160,None,Completed,21-Oct-10,25-May-11,216,Q125 - JHS 125Q Thom J. McCann Woodside,46-02 47 Ave,DOE,79.69,11377,QUEENS,40.741131,-73.918945,2,26,235,4052874,4022840006,Hunters Point-Sunnyside-West Maspeth                                       
Energy Audit,161,None,Completed,7-Oct-10,19-May-11,224,Q20 - PS 20Q John Bowne,142-30 Barclay Ave,DOE,291.94,11355,QUEENS,40.758689,-73.824832,7,20,855,4114657,4050470001,Flushing                                                                   
Lighting System Upgrade,162,Retrofit,Completed,1-May-09,30-Sep-09,152,Q440 - Forest Hills High School,67-01 110th Street,DOE,179.68,11375,QUEENS,40.729402,-73.845637,6,29,747,4052143,4021890002,Forest Hills                                                               
Other,163,Photovoltaic,Substantially Completed,30-Nov-11,22-Feb-12,84,Queens 3 East - Photovoltaic,153-67 146th Avenue,DSNY,22.21,11434,QUEENS,40.664629,-73.784675,13,31,306,4433112,4150010073,Springfield Gardens South-Brookville                                       
Energy Audit,164,None,Completed,6-Feb-12,29-Jun-12,144,Queens 7 District Garage Annex,120-15 31st Ave. Queens NY,DSNY,526.73,11354,QUEENS,40.769692,-73.847197,7,19,907,,,College Point                                                              
Lighting System Upgrade,165,Retrofit,Completed,5-Jul-11,30-Oct-11,117,Queens Borough Hall,120-55 Queens Blvd,DCAS,124.9,11415,QUEENS,40.713329,-73.828601,9,29,216,4052812,4022740002,Kew Gardens                                                                
Energy Audit,166,None,Completed,15-Feb-11,19-Apr-12,429,Queens Vocational and Technical High School,37-02 47th Avenue,DOE,141,11101,QUEENS,40.742205,-73.928219,2,26,189,4003259,4002280020,Hunters Point-Sunnyside-West Maspeth                                       
Other,167,Photovoltaic,Substantially Completed,16-Dec-11,24-Feb-12,70,R&T Repair Shop,48-34 35th Street,FDNY,13.51,11101,QUEENS,40.740165,-73.930693,2,26,199,4003451,4002540001,Hunters Point-Sunnyside-West Maspeth                                       
Lighting System Upgrade,168,Retrofit,Completed,15-Jun-11,8-Dec-11,176,R008,"112 Lindenwood Rd, 100 Lindenwood Rd",DOE,49.28,10308,STATEN IS,40.547692,-74.151755,3,51,15601,5066295,5052210001,Great Kills                                                                
Lighting System Upgrade,169,Retrofit,Completed,4-Oct-07,1-Apr-08,180,St. John's Recreation Center,1251 PROSPECT PLACE,DPR,60.75,11213,BROOKLYN,40.673488,-73.9348,8,36,345,3393257,3013530001,Crown Heights North                                                        
Lighting System Upgrade,170,Retrofit,Completed,31-May-11,28-Sep-11,120,Staten Island 1, 539 Jersey St.,DSNY,104.8,10301,STATEN IS,40.636097,-74.084519,1,49,11,5106487,5000340001,West New Brighton-New Brighton-St. George                                  
Other,171,Photovoltaic,Substantially Completed,24-Oct-11,22-Feb-12,121,Sunrise Yard,88-20 Pitkin Ave and Linden Blvd,DOT,22.7,11417,QUEENS,40.673779,-73.847572,10,32,58,,,Ozone Park                                                                 
Lighting System Upgrade,172,Retrofit,Completed,4-Oct-07,1-Apr-08,180,Tony Dapolito Recreational Center, 3 Clarkson Street,DPR,40,10014,MANHATTAN,40.729376,-74.005578,2,3,67,,,West Village                                                               
Lighting System Upgrade,173,Retrofit,Completed,12-Dec-08,20-Jul-09,220,Traffic Control Division,134-40 W 30TH ST,NYPD,30.02,10001,MANHATTAN,40.747739,-73.990739,5,3,95,1015151,1008050082,Midtown-Midtown South                                                      
Lighting System Upgrade,174,Retrofit,Substantially Completed,24-Oct-11,15-Mar-12,143,Wakefield Branch,4100 Lowerre Place,NYPL,15.48,10466,BRONX,40.891052,-73.859841,12,12,420,2063175,2048320020,Williamsbridge-Olinville                                                   
Lighting System Upgrade,175,Retrofit,Install,14-May-12,28-Sep-12,137,Washington Irving Branch Library,360 Irving Avenue,BPL,11.9,11237,BROOKLYN,40.697745,-73.912157,4,37,435,3076852,3033620032,Bushwick North                                                             
Lighting System Upgrade,176,Retrofit,Substantially Completed,12-Mar-12,29-Mar-12,17,Woodhaven Branch Library,8541 Forest Pkwy,QPL,8.27,11421,QUEENS,40.694619,-73.861812,9,32,12,4181578,4088560085,Woodhaven                                                                  
Comprehensive,177,Retrofit,Substantially Completed,30-Jan-12,29-Jun-12,151,Woodside Inspection Facility,24-55 Brooklyn-Queens Expwy,TLC,61.06,11377,QUEENS,40.764199,-73.902694,1,22,299,4022499,4010160045,park-cemetery-etc-Queens                                                   
Energy Audit,178,None,Completed,24-Mar-10,7-Oct-10,197,X129 Twin Parks Upper School,2055 Mapes Avenue,DOE,137.68,10460,BRONX,40.845878,-73.886184,6,15,371,2012957,2031090001,East Tremont                                                               
Lighting System Upgrade,179,Retrofit,Completed,10-Jan-11,21-Nov-11,315,X430 Walton H.S.,2780 Reservoir Ave @ East 196th Street,DOE,94.85,10468,BRONX,40.870293,-73.898309,7,11,409,2015241,2032470070,Van Cortlandt Village                                                      
